start=new Date('2022-09-21T00:00:00.000Z').valueOf();
sats=[{"LAUNCH_DATE":"2021-05-26","EPHEMERIS_TYPE":"0","REV_AT_EPOCH":"7288","OBJECT_TYPE":"PAYLOAD","NORAD_CAT_ID":"48651","RA_OF_ASC_NODE":"45.0737","CLASSIFICATION_TYPE":"U","DECAY_DATE":null,"MEAN_ANOMALY":"279.3112","BSTAR":"0.00012894000000","TLE_LINE2":"2 48651  53.0556  45.0737 0001602  80.8058 279.3112 15.06394221 72887","FILE":"3578945","MEAN_MOTION":"15.06394221","ELEMENT_SET_NO":"999","INCLINATION":"53.0556","RCS_SIZE":"LARGE","APOAPSIS":"548.341","MEAN_MOTION_DDOT":"0.0000000000000","EPOCH":"2022-09-20T15:43:37.739424","TIME_SYSTEM":"UTC","SITE":"AFETR","REF_FRAME":"TEME","CENTER_NAME":"EARTH","ARG_OF_PERICENTER":"80.8058","OBJECT_NAME":"STARLINK-2731","TLE_LINE1":"1 48651U 21044P   22263.65529791  .00001639  00000-0  12894-3 0  9990","OBJECT_ID":"2021-044P","ECCENTRICITY":"0.00016020","COUNTRY_CODE":"US","MEAN_MOTION_DOT":"0.00001639","SEMIMAJOR_AXIS":"6925.366","MEAN_ELEMENT_THEORY":"SGP4","PERIOD":"95.593","GP_ID":"213122642","PERIAPSIS":"546.122"},{"BSTAR":"0.00001959800000","TLE_LINE2":"2 48652  53.0560  44.5050 0001459  76.1131 284.0021 15.06402098 72902","OBJECT_TYPE":"PAYLOAD","NORAD_CAT_ID":"48652","RA_OF_ASC_NODE":"44.5050","CLASSIFICATION_TYPE":"U","DECAY_DATE":null,"MEAN_ANOMALY":"284.0021","LAUNCH_DATE":"2021-05-26","EPHEMERIS_TYPE":"0","REV_AT_EPOCH":"7290","RCS_SIZE":"LARGE","TIME_SYSTEM":"UTC","APOAPSIS":"548.218","MEAN_MOTION_DDOT":"0.0000000000000","EPOCH":"2022-09-20T18:49:23.350656","INCLINATION":"53.0560","FILE":"3578945","MEAN_MOTION":"15.06402098","ELEMENT_SET_NO":"999","CENTER_NAME":"EARTH","ARG_OF_PERICENTER":"76.1131","OBJECT_NAME":"STARLINK-2727","TLE_LINE1":"1 48652U 21044Q   22263.78429804  .00000010  00000-0  19598-4 0  9990","OBJECT_ID":"2021-044Q","REF_FRAME":"TEME","SITE":"AFETR","PERIAPSIS":"546.197","GP_ID":"213122894","MEAN_ELEMENT_THEORY":"SGP4","SEMIMAJOR_AXIS":"6925.342","PERIOD":"95.592","ECCENTRICITY":"0.00014590","COUNTRY_CODE":"US","MEAN_MOTION_DOT":"0.00000010"},{"CLASSIFICATION_TYPE":"U","OBJECT_TYPE":"PAYLOAD","NORAD_CAT_ID":"48653","RA_OF_ASC_NODE":"46.5992","MEAN_ANOMALY":"277.0128","DECAY_DATE":null,"BSTAR":"0.00001177900000","TLE_LINE2":"2 48653  53.0561  46.5992 0001283  83.1007 277.0128 15.06394133 72838","REV_AT_EPOCH":"7283","EPHEMERIS_TYPE":"0","LAUNCH_DATE":"2021-05-26","RCS_SIZE":"LARGE","TIME_SYSTEM":"UTC","APOAPSIS":"548.120","MEAN_MOTION_DDOT":"0.0000000000000","EPOCH":"2022-09-20T07:35:18.324384","MEAN_MOTION":"15.06394133","FILE":"3578736","ELEMENT_SET_NO":"999","INCLINATION":"53.0561","REF_FRAME":"TEME","CENTER_NAME":"EARTH","TLE_LINE1":"1 48653U 21044R   22263.31618431 -.00000106  00000-0  11779-4 0  9996","OBJECT_ID":"2021-044R","OBJECT_NAME":"STARLINK-2720","ARG_OF_PERICENTER":"83.1007","SITE":"AFETR","GP_ID":"213071154","PERIAPSIS":"546.343","COUNTRY_CODE":"US","ECCENTRICITY":"0.00012830","MEAN_MOTION_DOT":"-0.00000106","PERIOD":"95.593","SEMIMAJOR_AXIS":"6925.367","MEAN_ELEMENT_THEORY":"SGP4"},{"ARG_OF_PERICENTER":"92.5393","OBJECT_NAME":"STARLINK-2651","OBJECT_ID":"2021-044S","TLE_LINE1":"1 48654U 21044S   22263.77692330  .00001233  00000-0  10166-3 0  9996","CENTER_NAME":"EARTH","REF_FRAME":"TEME","SITE":"AFETR","PERIAPSIS":"546.790","GP_ID":"213122392","MEAN_ELEMENT_THEORY":"SGP4","SEMIMAJOR_AXIS":"6925.353","PERIOD":"95.592","MEAN_MOTION_DOT":"0.00001233","ECCENTRICITY":"0.00006170","COUNTRY_CODE":"US","TLE_LINE2":"2 48654  53.0566  44.5311 0000617  92.5393 267.5667 15.06398711 72905","BSTAR":"0.00010166000000","DECAY_DATE":null,"MEAN_ANOMALY":"267.5667","RA_OF_ASC_NODE":"44.5311","OBJECT_TYPE":"PAYLOAD","NORAD_CAT_ID":"48654","CLASSIFICATION_TYPE":"U","EPHEMERIS_TYPE":"0","LAUNCH_DATE":"2021-05-26","REV_AT_EPOCH":"7290","RCS_SIZE":"LARGE","EPOCH":"2022-09-20T18:38:46.173120","APOAPSIS":"547.645","MEAN_MOTION_DDOT":"0.0000000000000","TIME_SYSTEM":"UTC","INCLINATION":"53.0566","ELEMENT_SET_NO":"999","FILE":"3578945","MEAN_MOTION":"15.06398711"},{"REV_AT_EPOCH":"7291","LAUNCH_DATE":"2021-05-26","EPHEMERIS_TYPE":"0","MEAN_ANOMALY":"292.5882","DECAY_DATE":null,"CLASSIFICATION_TYPE":"U","RA_OF_ASC_NODE":"44.2502","OBJECT_TYPE":"PAYLOAD","NORAD_CAT_ID":"48655","TLE_LINE2":"2 48655  53.0552  44.2502 0001402  67.5255 292.5882 15.06392432 72914","BSTAR":"-0.00019091000000","ELEMENT_SET_NO":"999","MEAN_MOTION":"15.06392432","FILE":"3578945","INCLINATION":"53.0552","RCS_SIZE":"LARGE","EPOCH":"2022-09-20T20:09:00.280512","APOAPSIS":"548.208","MEAN_MOTION_DDOT":"0.0000000000000","TIME_SYSTEM":"UTC","SITE":"AFETR","REF_FRAME":"TEME","OBJECT_ID":"2021-044T","TLE_LINE1":"1 48655U 21044T   22263.83958658 -.00003123  00000-0 -19091-3 0  9990","ARG_OF_PERICENTER":"67.5255","OBJECT_NAME":"STARLINK-2657","CENTER_NAME":"EARTH","MEAN_MOTION_DOT":"-0.00003123","COUNTRY_CODE":"US","ECCENTRICITY":"0.00014020","PERIOD":"95.593","MEAN_ELEMENT_THEORY":"SGP4","SEMIMAJOR_AXIS":"6925.372","GP_ID":"213123143","PERIAPSIS":"546.266"},{"TLE_LINE2":"2 48656  53.0562  46.0554 0001579  70.3082 289.8078 15.06396551 72853","BSTAR":"-0.00001920300000","MEAN_ANOMALY":"289.8078","DECAY_DATE":null,"CLASSIFICATION_TYPE":"U","OBJECT_TYPE":"PAYLOAD","NORAD_CAT_ID":"48656","RA_OF_ASC_NODE":"46.0554","REV_AT_EPOCH":"7285","LAUNCH_DATE":"2021-05-26","EPHEMERIS_TYPE":"0","APOAPSIS":"548.318","RCS_SIZE":"LARGE","EPOCH":"2022-09-20T10:30:28.470528","MEAN_MOTION_DDOT":"0.0000000000000","TIME_SYSTEM":"UTC","INCLINATION":"53.0562","ELEMENT_SET_NO":"999","MEAN_MOTION":"15.06396551","FILE":"3578736","TLE_LINE1":"1 48656U 21044U   22263.43782952 -.00000568  00000-0 -19203-4 0  9995","OBJECT_ID":"2021-044U","ARG_OF_PERICENTER":"70.3082","OBJECT_NAME":"STARLINK-2701","CENTER_NAME":"EARTH","REF_FRAME":"TEME","SITE":"AFETR","PERIAPSIS":"546.131","GP_ID":"213070404","PERIOD":"95.592","SEMIMAJOR_AXIS":"6925.359","MEAN_ELEMENT_THEORY":"SGP4","MEAN_MOTION_DOT":"-0.00000568","COUNTRY_CODE":"US","ECCENTRICITY":"0.00015790"},{"APOAPSIS":"548.167","RCS_SIZE":"LARGE","MEAN_MOTION_DDOT":"0.0000000000000","TIME_SYSTEM":"UTC","EPOCH":"2022-09-20T19:58:23.938464","INCLINATION":"53.0558","FILE":"3578945","MEAN_MOTION":"15.06393662","ELEMENT_SET_NO":"999","BSTAR":"0.00004232200000","TLE_LINE2":"2 48657  53.0558  44.2726 0001349  72.6339 287.4797 15.06393662 72914","OBJECT_TYPE":"PAYLOAD","NORAD_CAT_ID":"48657","RA_OF_ASC_NODE":"44.2726","CLASSIFICATION_TYPE":"U","DECAY_DATE":null,"MEAN_ANOMALY":"287.4797","LAUNCH_DATE":"2021-05-26","EPHEMERIS_TYPE":"0","REV_AT_EPOCH":"7291","PERIAPSIS":"546.299","GP_ID":"213122142","SEMIMAJOR_AXIS":"6925.368","MEAN_ELEMENT_THEORY":"SGP4","PERIOD":"95.593","ECCENTRICITY":"0.00013490","COUNTRY_CODE":"US","MEAN_MOTION_DOT":"0.00000349","CENTER_NAME":"EARTH","OBJECT_NAME":"STARLINK-2734","ARG_OF_PERICENTER":"72.6339","TLE_LINE1":"1 48657U 21044V   22263.83222151  .00000349  00000-0  42322-4 0  9993","OBJECT_ID":"2021-044V","REF_FRAME":"TEME","SITE":"AFETR"},{"ELEMENT_SET_NO":"999","FILE":"3578945","MEAN_MOTION":"15.06391993","INCLINATION":"53.0574","RCS_SIZE":"LARGE","APOAPSIS":"548.203","EPOCH":"2022-09-20T16:42:00.766080","MEAN_MOTION_DDOT":"0.0000000000000","TIME_SYSTEM":"UTC","EPHEMERIS_TYPE":"0","LAUNCH_DATE":"2021-05-26","REV_AT_EPOCH":"7289","DECAY_DATE":null,"MEAN_ANOMALY":"286.9100","OBJECT_TYPE":"PAYLOAD","RA_OF_ASC_NODE":"44.8960","NORAD_CAT_ID":"48658","CLASSIFICATION_TYPE":"U","TLE_LINE2":"2 48658  53.0574  44.8960 0001393  73.2042 286.9100 15.06391993 72890","BSTAR":"0.00019170000000","MEAN_MOTION_DOT":"0.00002574","ECCENTRICITY":"0.00013930","COUNTRY_CODE":"US","MEAN_ELEMENT_THEORY":"SGP4","SEMIMAJOR_AXIS":"6925.373","PERIOD":"95.593","GP_ID":"213121893","PERIAPSIS":"546.273","SITE":"AFETR","REF_FRAME":"TEME","ARG_OF_PERICENTER":"73.2042","OBJECT_NAME":"STARLINK-2647","OBJECT_ID":"2021-044W","TLE_LINE1":"1 48658U 21044W   22263.69584220  .00002574  00000-0  19170-3 0  9992","CENTER_NAME":"EARTH"},{"GP_ID":"213122643","PERIAPSIS":"546.336","MEAN_MOTION_DOT":"-0.00000631","ECCENTRICITY":"0.00012790","COUNTRY_CODE":"US","MEAN_ELEMENT_THEORY":"SGP4","SEMIMAJOR_AXIS":"6925.357","PERIOD":"95.592","REF_FRAME":"TEME","OBJECT_NAME":"STARLINK-2717","ARG_OF_PERICENTER":"69.3301","OBJECT_ID":"2021-044X","TLE_LINE1":"1 48659U 21044X   22263.69215750 -.00000631  00000-0 -23466-4 0  9990","CENTER_NAME":"EARTH","SITE":"AFETR","RCS_SIZE":"LARGE","MEAN_MOTION_DDOT":"0.0000000000000","APOAPSIS":"548.108","EPOCH":"2022-09-20T16:36:42.408000","TIME_SYSTEM":"UTC","ELEMENT_SET_NO":"999","FILE":"3578945","MEAN_MOTION":"15.06397328","INCLINATION":"53.0569","DECAY_DATE":null,"MEAN_ANOMALY":"290.7825","RA_OF_ASC_NODE":"44.9073","OBJECT_TYPE":"PAYLOAD","NORAD_CAT_ID":"48659","CLASSIFICATION_TYPE":"U","TLE_LINE2":"2 48659  53.0569  44.9073 0001279  69.3301 290.7825 15.06397328 72893","BSTAR":"-0.00002346600000","LAUNCH_DATE":"2021-05-26","EPHEMERIS_TYPE":"0","REV_AT_EPOCH":"7289"},{"RCS_SIZE":"LARGE","EPOCH":"2022-09-20T08:33:41.167872","APOAPSIS":"548.082","MEAN_MOTION_DDOT":"0.0000000000000","TIME_SYSTEM":"UTC","INCLINATION":"53.0561","MEAN_MOTION":"15.06396072","FILE":"3578798","ELEMENT_SET_NO":"999","BSTAR":"0.00010661000000","TLE_LINE2":"2 48660  53.0561  46.4129 0001237  87.1778 272.9353 15.06396072 73687","CLASSIFICATION_TYPE":"U","RA_OF_ASC_NODE":"46.4129","OBJECT_TYPE":"PAYLOAD","NORAD_CAT_ID":"48660","MEAN_ANOMALY":"272.9353","DECAY_DATE":null,"REV_AT_EPOCH":"7368","LAUNCH_DATE":"2021-05-26","EPHEMERIS_TYPE":"0","PERIAPSIS":"546.369","GP_ID":"213097581","PERIOD":"95.592","SEMIMAJOR_AXIS":"6925.361","MEAN_ELEMENT_THEORY":"SGP4","COUNTRY_CODE":"US","ECCENTRICITY":"0.00012370","MEAN_MOTION_DOT":"0.00001307","CENTER_NAME":"EARTH","TLE_LINE1":"1 48660U 21044Y   22263.35672648  .00001307  00000-0  10661-3 0  9999","OBJECT_ID":"2021-044Y","ARG_OF_PERICENTER":"87.1778","OBJECT_NAME":"STARLINK-2688","REF_FRAME":"TEME","SITE":"AFETR"}];
